{
  "norad_id": 58974,
  "name": "STARLINK-31361",
  "history": [
    {
      "epoch": "2026-03-28T19:50:11.328864Z",
      "apogee_km": 476.1234105896965,
      "perigee_km": 474.26094985167947,
      "latitude_deg": -2.5627151204891063e-05,
      "longitude_deg": 83.97748611256263,
      "height_km": 476.05800338933926,
      "semi_major_axis_km": 6853.329180220688,
      "eccentricity": 0.00013588,
      "inclination_deg": 53.1591,
      "raan_deg": 207.7661,
      "arg_perigee_deg": 88.0282,
      "mean_anomaly_deg": 272.0874,
      "mean_motion_rev_day": 15.30207666
    },
    {
      "epoch": "2026-03-29T00:32:22.545024Z",
      "apogee_km": 476.75692160935523,
      "perigee_km": 473.74143169162835,
      "latitude_deg": 1.6858586459160087e-05,
      "longitude_deg": 12.325933616974655,
      "height_km": 476.13825975556244,
      "semi_major_axis_km": 6853.3861766504915,
      "eccentricity": 0.00022,
      "inclination_deg": 53.1584,
      "raan_deg": 206.8544,
      "arg_perigee_deg": 89.7158,
      "mean_anomaly_deg": 270.4095,
      "mean_motion_rev_day": 15.30188577
    },
    {
      "epoch": "2026-03-29T08:22:38.287200Z",
      "apogee_km": 476.04823185263285,
      "perigee_km": 474.52800509285225,
      "latitude_deg": 3.2102083120877435e-05,
      "longitude_deg": -107.0745304145281,
      "height_km": 476.64972571540636,
      "semi_major_axis_km": 6853.425118472742,
      "eccentricity": 0.00011091,
      "inclination_deg": 53.1593,
      "raan_deg": 205.3414,
      "arg_perigee_deg": 127.5359,
      "mean_anomaly_deg": 232.5743,
      "mean_motion_rev_day": 15.30175535
    }
  ]
}